OBJECT_NAME,OBJECT_ID,EPOCH,MEAN_MOTION,ECCENTRICITY,INCLINATION,RA_OF_ASC_NODE,ARG_OF_PERICENTER,MEAN_ANOMALY,EPHEMERIS_TYPE,CLASSIFICATION_TYPE,NORAD_CAT_ID,ELEMENT_SET_NO,REV_AT_EPOCH,BSTAR,MEAN_MOTION_DOT,MEAN_MOTION_DDOT
KAZEOSAT 2,2014-033A,2026-06-11T20:11:20.067072,14.85463573,.0008332,97.5415,2.7360,347.9496,12.1519,0,U,40010,999,64816,.82563E-4,.662E-5,0
HODOYOSHI-4,2014-033B,2026-06-11T20:33:27.916704,14.88115381,.0022888,97.5455,347.9369,326.7179,33.2598,0,U,40011,999,64801,.1427E-3,.1267E-4,0
DEIMOS-2,2014-033D,2026-06-11T21:23:06.586944,14.93714552,.0001947,97.5847,37.5664,55.1780,304.9623,0,U,40013,999,63693,.12538E-3,.1272E-4,0
HODOYOSHI-3,2014-033F,2026-06-11T09:24:04.550112,14.85376600,.0033224,97.6412,325.6658,16.3408,343.8870,0,U,40015,999,64676,.1054E-3,.863E-5,0
SPOT 7,2014-034A,2026-06-11T20:08:46.447008,14.60953476,.0001178,98.0633,225.4687,88.0311,272.1025,0,U,40053,999,63635,.72855E-4,.312E-5,0
SKYSAT-B,2014-037D,2026-06-11T19:30:30.875904,14.88014130,.0004372,98.3837,121.4715,304.7989,55.2814,0,U,40072,999,64516,.12977E-3,.113E-4,0
WORLDVIEW-3 (WV-3),2014-048A,2026-06-11T20:15:47.931264,14.85013018,.0001405,97.8566,237.7509,33.4576,326.6728,0,U,40115,999,64111,.88312E-4,.7E-5,0
GAOFEN-2,2014-049A,2026-06-11T20:07:25.984416,14.80891432,.0005911,98.0113,227.0507,248.3529,111.7054,0,U,40118,999,63844,.1094E-5,-.45E-6,0
YAOGAN-21,2014-053A,2026-06-11T20:27:23.727744,15.26292403,.0009882,97.1484,203.3168,109.2202,251.0108,0,U,40143,999,65414,.22753E-3,.584E-4,0
YAOGAN-22,2014-063A,2026-06-11T09:44:21.784416,13.15530967,.0006209,100.7716,313.5831,198.3818,161.7070,0,U,40275,999,55905,-.47651E-5,-.49E-6,0
ASNARO,2014-070A,2026-06-11T19:47:44.289888,15.19351926,.0005011,97.3453,239.0847,183.1106,177.0099,0,U,40298,999,64319,.29654E-3,.6204E-4,0
YAOGAN-24,2014-072A,2026-06-11T20:42:36.844416,14.76215750,.001259,98.1475,300.1564,282.6608,77.3193,0,U,40310,999,62293,.80899E-4,.507E-5,0
CBERS 4,2014-079A,2026-06-11T21:06:08.610048,14.35506830,.0001953,98.3538,219.8772,69.2409,290.8986,0,U,40336,999,60319,-.28037E-4,-.123E-5,0
YAOGAN-26,2014-088A,2026-06-11T19:55:41.719008,15.47127153,.0006441,97.0646,163.1648,79.6300,280.5676,0,U,40362,999,63687,.2796E-3,.14108E-3,0
SMAP,2015-003A,2026-06-11T19:33:27.912096,14.63361867,.0001287,98.1276,169.9855,94.3555,265.7794,0,U,40376,999,60683,.79314E-4,.363E-5,0
KOMPSAT-3A,2015-014A,2026-06-11T21:31:28.507008,15.53750413,.0056026,97.6880,153.8729,193.6845,166.2892,0,U,40536,999,62099,.34273E-3,.23435E-3,0
SENTINEL-2A,2015-028A,2026-06-11T19:55:17.582304,14.30813316,.0001097,98.5683,237.7575,86.9443,273.1865,0,U,40697,999,57296,.14827E-5,-.4E-6,0
GAOFEN-8,2015-030A,2026-06-11T20:16:09.335136,15.45764520,.0008287,97.6909,355.8958,205.8756,154.2078,0,U,40701,999,61062,.47278E-3,.22846E-3,0
CARBONITE 1 (CBNT-1),2015-032D,2026-06-11T20:30:10.073664,14.83572717,.0013456,97.6508,341.1448,317.1274,42.8891,0,U,40718,999,58855,.2581E-3,.2079E-4,0
YAOGAN-27,2015-040A,2026-06-11T20:37:10.020000,13.16070573,.0007551,100.1149,149.4727,223.4247,136.6273,0,U,40878,999,51696,.95605E-3,.321E-5,0
GAOFEN-9 01,2015-047A,2026-06-11T20:48:08.877888,14.82873604,.0028001,97.6277,198.8032,154.6812,205.5782,0,U,40894,999,57940,.10981E-3,.845E-5,0
YAOGAN-28,2015-064A,2026-06-11T21:14:35.957760,15.27354313,.0010146,97.3061,301.2554,202.1612,157.9190,0,U,41026,999,58987,.25698E-3,.682E-4,0
YAOGAN-29,2015-069A,2026-06-11T20:20:52.224288,14.83082129,.0002832,98.0036,191.4723,64.0797,296.0708,0,U,41038,999,56983,.9695E-4,.735E-5,0
KENT RIDGE 1,2015-077B,2026-06-11T01:45:24.880032,15.23095182,.00082332,14.9802,311.4591,152.2159,207.8603,0,U,41167,999,58016,.12611853E-3,.3829E-4,0
GAOFEN-4,2015-083A,2026-06-11T20:35:28.062816,1.00271844,.0004265,0.3421,83.8505,112.0141,118.9163,0,U,41194,999,3847,0,-.319E-5,0
JASON-3,2016-002A,2026-06-11T19:10:12.063936,12.87627960,.0008569,66.0397,137.1636,273.0249,86.9789,0,U,41240,999,48655,.62316E-4,-.46E-6,0
SENTINEL-3A,2016-011A,2026-06-11T19:35:51.016416,14.26738443,.0001377,98.6249,230.2771,103.3671,256.7663,0,U,41335,999,53729,.48714E-4,.74E-6,0
ZIYUAN 3-02 (ZY 3-02),2016-033A,2026-06-11T20:41:55.374144,15.21429795,.0011412,97.3839,238.7384,311.1118,48.9132,0,U,41556,999,55717,.2081E-3,.4611E-4,0
CARTOSAT-2C,2016-040A,2026-06-11T20:34:29.970912,15.19270903,.0010048,97.4486,222.9087,147.6946,212.4906,0,U,41599,999,55290,.11845E-3,.2432E-4,0
SKYSAT-C1,2016-040C,2026-06-11T14:45:06.687072,15.36206856,.0003916,96.9571,194.6367,68.8663,291.3000,0,U,41601,999,55701,.2415E-3,.8449E-4,0
LAPAN-A3,2016-040E,2026-06-11T21:42:09.329760,15.33071180,.0011468,97.1484,159.2235,43.2034,317.0107,0,U,41603,999,55400,.1009E-3,.3154E-4,0
