KAZEOSAT 2              
1 40010U 14033A   26162.84120448  .00000662  00000+0  82563-4 0  9995
2 40010  97.5415   2.7360 0008332 347.9496  12.1519 14.85463573648164
HODOYOSHI-4             
1 40011U 14033B   26162.85657311  .00001267  00000+0  14270-3 0  9992
2 40011  97.5455 347.9369 0022888 326.7179  33.2598 14.88115381648016
DEIMOS-2                
1 40013U 14033D   26162.89104846  .00001272  00000+0  12538-3 0  9999
2 40013  97.5847  37.5664 0001947  55.1780 304.9623 14.93714552636933
HODOYOSHI-3             
1 40015U 14033F   26162.39171933  .00000863  00000+0  10540-3 0  9993
2 40015  97.6412 325.6658 0033224  16.3408 343.8870 14.85376600646764
SPOT 7                  
1 40053U 14034A   26162.83942647  .00000312  00000+0  72855-4 0  9990
2 40053  98.0633 225.4687 0001178  88.0311 272.1025 14.60953476636352
SKYSAT-B                
1 40072U 14037D   26162.81285736  .00001130  00000+0  12977-3 0  9998
2 40072  98.3837 121.4715 0004372 304.7989  55.2814 14.88014130645167
WORLDVIEW-3 (WV-3)      
1 40115U 14048A   26162.84430476  .00000700  00000+0  88312-4 0  9993
2 40115  97.8566 237.7509 0001405  33.4576 326.6728 14.85013018641113
GAOFEN-2                
1 40118U 14049A   26162.83849519 -.00000045  00000+0  10940-5 0  9994
2 40118  98.0113 227.0507 0005911 248.3529 111.7054 14.80891432638444
YAOGAN-21               
1 40143U 14053A   26162.85235796  .00005840  00000+0  22753-3 0  9995
2 40143  97.1484 203.3168 0009882 109.2202 251.0108 15.26292403654144
YAOGAN-22               
1 40275U 14063A   26162.40580769 -.00000049  00000+0 -47651-5 0  9990
2 40275 100.7716 313.5831 0006209 198.3818 161.7070 13.15530967559057
ASNARO                  
1 40298U 14070A   26162.82481817  .00006204  00000+0  29654-3 0  9991
2 40298  97.3453 239.0847 0005011 183.1106 177.0099 15.19351926643194
YAOGAN-24               
1 40310U 14072A   26162.86292644  .00000507  00000+0  80899-4 0  9999
2 40310  98.1475 300.1564 0012590 282.6608  77.3193 14.76215750622932
CBERS 4                 
1 40336U 14079A   26162.87926632 -.00000123  00000+0 -28037-4 0  9998
2 40336  98.3538 219.8772 0001953  69.2409 290.8986 14.35506830603194
YAOGAN-26               
1 40362U 14088A   26162.83034397  .00014108  00000+0  27960-3 0  9990
2 40362  97.0646 163.1648 0006441  79.6300 280.5676 15.47127153636878
SMAP                    
1 40376U 15003A   26162.81490639  .00000363  00000+0  79314-4 0  9995
2 40376  98.1276 169.9855 0001287  94.3555 265.7794 14.63361867606835
KOMPSAT-3A              
1 40536U 15014A   26162.89685772  .00023435  00000+0  34273-3 0  9996
2 40536  97.6880 153.8729 0056026 193.6845 166.2892 15.53750413620992
SENTINEL-2A             
1 40697U 15028A   26162.83006461 -.00000040  00000+0  14827-5 0  9998
2 40697  98.5683 237.7575 0001097  86.9443 273.1865 14.30813316572965
GAOFEN-8                
1 40701U 15030A   26162.84455249  .00022846  00000+0  47278-3 0  9991
2 40701  97.6909 355.8958 0008287 205.8756 154.2078 15.45764520610626
CARBONITE 1 (CBNT-1)    
1 40718U 15032D   26162.85428326  .00002079  00000+0  25810-3 0  9992
2 40718  97.6508 341.1448 0013456 317.1274  42.8891 14.83572717588554
YAOGAN-27               
1 40878U 15040A   26162.85914375  .00000321  00000+0  95605-3 0  9999
2 40878 100.1149 149.4727 0007551 223.4247 136.6273 13.16070573516969
GAOFEN-9 01             
1 40894U 15047A   26162.86676942  .00000845  00000+0  10981-3 0  9995
2 40894  97.6277 198.8032 0028001 154.6812 205.5782 14.82873604579401
YAOGAN-28               
1 41026U 15064A   26162.88513840  .00006820  00000+0  25698-3 0  9991
2 41026  97.3061 301.2554 0010146 202.1612 157.9190 15.27354313589870
YAOGAN-29               
1 41038U 15069A   26162.84782667  .00000735  00000+0  96950-4 0  9999
2 41038  98.0036 191.4723 0002832  64.0797 296.0708 14.83082129569830
KENT RIDGE 1            
1 41167U 15077B   26162.07320463  .00003829  00000+0  12612-3 0  9997
2 41167  14.9802 311.4591 0008233 152.2159 207.8603 15.23095182580162
GAOFEN-4                
1 41194U 15083A   26162.85796369 -.00000319  00000+0  00000+0 0  9998
2 41194   0.3421  83.8505 0004265 112.0141 118.9163  1.00271844 38475
JASON-3                 
1 41240U 16002A   26162.79875074 -.00000046  00000+0  62316-4 0  9996
2 41240  66.0397 137.1636 0008569 273.0249  86.9789 12.87627960486559
SENTINEL-3A             
1 41335U 16011A   26162.81656269  .00000074  00000+0  48714-4 0  9993
2 41335  98.6249 230.2771 0001377 103.3671 256.7663 14.26738443537290
ZIYUAN 3-02 (ZY 3-02)   
1 41556U 16033A   26162.86244646  .00004611  00000+0  20810-3 0  9996
2 41556  97.3839 238.7384 0011412 311.1118  48.9132 15.21429795557179
CARTOSAT-2C             
1 41599U 16040A   26162.85729133  .00002432  00000+0  11845-3 0  9996
2 41599  97.4486 222.9087 0010048 147.6946 212.4906 15.19270903552900
SKYSAT-C1               
1 41601U 16040C   26162.61466073  .00008449  00000+0  24150-3 0  9992
2 41601  96.9571 194.6367 0003916  68.8663 291.3000 15.36206856557018
LAPAN-A3                
1 41603U 16040E   26162.90427465  .00003154  00000+0  10090-3 0  9994
2 41603  97.1484 159.2235 0011468  43.2034 317.0107 15.33071180554004
